1 27424U 02022A   12088.75242941  .00000545  00000-0  13113-3 0  2605
2 27424 098.2284 030.4676 0001197 087.5823 272.5524 14.57086290526654